[{"OBJECT_NAME":"FENGYUN 1C DEB","OBJECT_ID":"1999-025BD","EPOCH":"2026-04-05T12:41:36.566880","MEAN_MOTION":14.07986589,"ECCENTRICITY":0.01265261,"INCLINATION":98.7768,"RA_OF_ASC_NODE":76.6997,"ARG_OF_PERICENTER":219.7022,"MEAN_ANOMALY":256.5636,"EPHEMERIS_TYPE":0,"CLASSIFICATION_TYPE":"U","NORAD_CAT_ID":29763,"ELEMENT_SET_NO":999,"REV_AT_EPOCH":98651,"BSTAR":0.00027881591,"MEAN_MOTION_DOT":4.67e-6,"MEAN_MOTION_DDOT":0},{"OBJECT_NAME":"FENGYUN 1C DEB","OBJECT_ID":"1999-025BF","EPOCH":"2026-04-05T12:39:56.698848","MEAN_MOTION":14.02168752,"ECCENTRICITY":0.00591549,"INCLINATION":98.82,"RA_OF_ASC_NODE":115.1141,"ARG_OF_PERICENTER":134.6445,"MEAN_ANOMALY":19.103,"EPHEMERIS_TYPE":0,"CLASSIFICATION_TYPE":"U","NORAD_CAT_ID":29765,"ELEMENT_SET_NO":999,"REV_AT_EPOCH":98345,"BSTAR":6.9627582e-5,"MEAN_MOTION_DOT":6.6e-7,"MEAN_MOTION_DDOT":0},{"OBJECT_NAME":"FENGYUN 1C DEB","OBJECT_ID":"1999-025BG","EPOCH":"2026-04-05T14:46:05.682720","MEAN_MOTION":13.97531995,"ECCENTRICITY":0.01467546,"INCLINATION":98.6956,"RA_OF_ASC_NODE":44.1076,"ARG_OF_PERICENTER":332.3041,"MEAN_ANOMALY":211.2836,"EPHEMERIS_TYPE":0,"CLASSIFICATION_TYPE":"U","NORAD_CAT_ID":29766,"ELEMENT_SET_NO":999,"REV_AT_EPOCH":97394,"BSTAR":0.0017330342,"MEAN_MOTION_DOT":2.632e-5,"MEAN_MOTION_DDOT":0},{"OBJECT_NAME":"FENGYUN 1C DEB","OBJECT_ID":"1999-025BH","EPOCH":"2026-04-05T08:47:31.121952","MEAN_MOTION":14.04542902,"ECCENTRICITY":0.03291606,"INCLINATION":98.2092,"RA_OF_ASC_NODE":58.2902,"ARG_OF_PERICENTER":97.1017,"MEAN_ANOMALY":53.0584,"EPHEMERIS_TYPE":0,"CLASSIFICATION_TYPE":"U","NORAD_CAT_ID":29767,"ELEMENT_SET_NO":999,"REV_AT_EPOCH":97194,"BSTAR":0.0023477712,"MEAN_MOTION_DOT":6.056e-5,"MEAN_MOTION_DDOT":0},{"OBJECT_NAME":"FENGYUN 1C DEB","OBJECT_ID":"1999-025BK","EPOCH":"2026-04-05T14:26:10.266144","MEAN_MOTION":14.14145924,"ECCENTRICITY":0.0094827,"INCLINATION":99.0915,"RA_OF_ASC_NODE":159.9156,"ARG_OF_PERICENTER":168.5067,"MEAN_ANOMALY":191.8301,"EPHEMERIS_TYPE":0,"CLASSIFICATION_TYPE":"U","NORAD_CAT_ID":29769,"ELEMENT_SET_NO":999,"REV_AT_EPOCH":98290,"BSTAR":0.0018379795,"MEAN_MOTION_DOT":3.611e-5,"MEAN_MOTION_DDOT":0},{"OBJECT_NAME":"FENGYUN 1C DEB","OBJECT_ID":"1999-025BL","EPOCH":"2026-04-05T04:23:51.908352","MEAN_MOTION":14.20888926,"ECCENTRICITY":0.00602464,"INCLINATION":98.8342,"RA_OF_ASC_NODE":175.7515,"ARG_OF_PERICENTER":306.8724,"MEAN_ANOMALY":81.4998,"EPHEMERIS_TYPE":0,"CLASSIFICATION_TYPE":"U","NORAD_CAT_ID":29770,"ELEMENT_SET_NO":999,"REV_AT_EPOCH":98697,"BSTAR":0.001443213,"MEAN_MOTION_DOT":3.135e-5,"MEAN_MOTION_DDOT":0},{"OBJECT_NAME":"FENGYUN 1C DEB","OBJECT_ID":"1999-025BN","EPOCH":"2026-04-05T12:15:42.968736","MEAN_MOTION":14.03653108,"ECCENTRICITY":0.0136344,"INCLINATION":98.3836,"RA_OF_ASC_NODE":300.9423,"ARG_OF_PERICENTER":328.4021,"MEAN_ANOMALY":60.1823,"EPHEMERIS_TYPE":0,"CLASSIFICATION_TYPE":"U","NORAD_CAT_ID":29772,"ELEMENT_SET_NO":999,"REV_AT_EPOCH":97851,"BSTAR":0.0011569796,"MEAN_MOTION_DOT":1.934e-5,"MEAN_MOTION_DDOT":0},{"OBJECT_NAME":"FENGYUN 1C DEB","OBJECT_ID":"1999-025BP","EPOCH":"2026-04-05T09:22:02.219808","MEAN_MOTION":14.27847203,"ECCENTRICITY":0.00461656,"INCLINATION":99.0025,"RA_OF_ASC_NODE":257.3084,"ARG_OF_PERICENTER":322.7893,"MEAN_ANOMALY":66.8238,"EPHEMERIS_TYPE":0,"CLASSIFICATION_TYPE":"U","NORAD_CAT_ID":29773,"ELEMENT_SET_NO":999,"REV_AT_EPOCH":99819,"BSTAR":0.00045647771,"MEAN_MOTION_DOT":1.095e-5,"MEAN_MOTION_DDOT":0},{"OBJECT_NAME":"FENGYUN 1C DEB","OBJECT_ID":"1999-025BQ","EPOCH":"2026-04-05T10:54:45.205632","MEAN_MOTION":14.22854651,"ECCENTRICITY":0.00505176,"INCLINATION":99.091,"RA_OF_ASC_NODE":44.2871,"ARG_OF_PERICENTER":157.3938,"MEAN_ANOMALY":318.9458,"EPHEMERIS_TYPE":0,"CLASSIFICATION_TYPE":"U","NORAD_CAT_ID":29774,"ELEMENT_SET_NO":999,"REV_AT_EPOCH":99692,"BSTAR":0.00022914861,"MEAN_MOTION_DOT":4.74e-6,"MEAN_MOTION_DDOT":0},{"OBJECT_NAME":"FENGYUN 1C DEB","OBJECT_ID":"1999-025BS","EPOCH":"2026-04-05T14:53:47.574528","MEAN_MOTION":14.07846221,"ECCENTRICITY":0.0022748,"INCLINATION":98.7582,"RA_OF_ASC_NODE":124.0473,"ARG_OF_PERICENTER":311.6134,"MEAN_ANOMALY":163.2128,"EPHEMERIS_TYPE":0,"CLASSIFICATION_TYPE":"U","NORAD_CAT_ID":29776,"ELEMENT_SET_NO":999,"REV_AT_EPOCH":98682,"BSTAR":0.00015491762,"MEAN_MOTION_DOT":2.2e-6,"MEAN_MOTION_DDOT":0},{"OBJECT_NAME":"FENGYUN 1C DEB","OBJECT_ID":"1999-025BT","EPOCH":"2026-04-05T03:35:49.014240","MEAN_MOTION":13.92150005,"ECCENTRICITY":0.00920039,"INCLINATION":99.2613,"RA_OF_ASC_NODE":157.0486,"ARG_OF_PERICENTER":263.4079,"MEAN_ANOMALY":122.2515,"EPHEMERIS_TYPE":0,"CLASSIFICATION_TYPE":"U","NORAD_CAT_ID":29777,"ELEMENT_SET_NO":999,"REV_AT_EPOCH":97619,"BSTAR":0.00013618793,"MEAN_MOTION_DOT":1.35e-6,"MEAN_MOTION_DDOT":0},{"OBJECT_NAME":"FENGYUN 1C DEB","OBJECT_ID":"1999-025BV","EPOCH":"2026-04-05T11:49:19.951392","MEAN_MOTION":14.13567496,"ECCENTRICITY":0.00627859,"INCLINATION":98.6747,"RA_OF_ASC_NODE":108.3315,"ARG_OF_PERICENTER":199.4239,"MEAN_ANOMALY":160.454,"EPHEMERIS_TYPE":0,"CLASSIFICATION_TYPE":"U","NORAD_CAT_ID":29779,"ELEMENT_SET_NO":999,"REV_AT_EPOCH":99019,"BSTAR":0.00027054938,"MEAN_MOTION_DOT":4.77e-6,"MEAN_MOTION_DDOT":0},{"OBJECT_NAME":"FENGYUN 1C DEB","OBJECT_ID":"1999-025BW","EPOCH":"2026-04-05T05:55:24.954240","MEAN_MOTION":14.21971676,"ECCENTRICITY":0.0040392,"INCLINATION":99.2809,"RA_OF_ASC_NODE":26.9333,"ARG_OF_PERICENTER":166.9846,"MEAN_ANOMALY":193.2382,"EPHEMERIS_TYPE":0,"CLASSIFICATION_TYPE":"U","NORAD_CAT_ID":29780,"ELEMENT_SET_NO":999,"REV_AT_EPOCH":98691,"BSTAR":0.0017112,"MEAN_MOTION_DOT":3.764e-5,"MEAN_MOTION_DDOT":0},{"OBJECT_NAME":"FENGYUN 1C DEB","OBJECT_ID":"1999-025BX","EPOCH":"2026-04-05T10:53:12.951168","MEAN_MOTION":14.05506667,"ECCENTRICITY":0.00709767,"INCLINATION":98.8187,"RA_OF_ASC_NODE":91.4537,"ARG_OF_PERICENTER":213.9974,"MEAN_ANOMALY":300.3617,"EPHEMERIS_TYPE":0,"CLASSIFICATION_TYPE":"U","NORAD_CAT_ID":29781,"ELEMENT_SET_NO":999,"REV_AT_EPOCH":98240,"BSTAR":0.00073593154,"MEAN_MOTION_DOT":1.18e-5,"MEAN_MOTION_DDOT":0},{"OBJECT_NAME":"FENGYUN 1C DEB","OBJECT_ID":"1999-025BY","EPOCH":"2026-04-05T09:28:09.081120","MEAN_MOTION":14.12210702,"ECCENTRICITY":0.00533505,"INCLINATION":99.0871,"RA_OF_ASC_NODE":155.5815,"ARG_OF_PERICENTER":241.6366,"MEAN_ANOMALY":181.4024,"EPHEMERIS_TYPE":0,"CLASSIFICATION_TYPE":"U","NORAD_CAT_ID":29782,"ELEMENT_SET_NO":999,"REV_AT_EPOCH":98275,"BSTAR":0.0016105091,"MEAN_MOTION_DOT":2.954e-5,"MEAN_MOTION_DDOT":0},{"OBJECT_NAME":"FENGYUN 1C DEB","OBJECT_ID":"1999-025CA","EPOCH":"2026-04-05T13:45:45.564192","MEAN_MOTION":14.30922512,"ECCENTRICITY":0.00594407,"INCLINATION":98.9494,"RA_OF_ASC_NODE":22.6591,"ARG_OF_PERICENTER":326.4766,"MEAN_ANOMALY":212.0097,"EPHEMERIS_TYPE":0,"CLASSIFICATION_TYPE":"U","NORAD_CAT_ID":29784,"ELEMENT_SET_NO":999,"REV_AT_EPOCH":99987,"BSTAR":0.00072251883,"MEAN_MOTION_DOT":1.888e-5,"MEAN_MOTION_DDOT":0}]
