FENGYUN 1C DEB          
1 29763U 99025BD  26095.52889545  .00000467  00000+0  27882-3 0  9996
2 29763  98.7768  76.6997 0126526 219.7022 256.5636 14.07986589986512
FENGYUN 1C DEB          
1 29765U 99025BF  26095.52773957  .00000066  00000+0  69628-4 0  9997
2 29765  98.8200 115.1141 0059154 134.6445  19.1030 14.02168752983452
FENGYUN 1C DEB          
1 29766U 99025BG  26095.61534355  .00002632  00000+0  17330-2 0  9997
2 29766  98.6956  44.1076 0146754 332.3041 211.2836 13.97531995973947
FENGYUN 1C DEB          
1 29767U 99025BH  26095.36633243  .00006056  00000+0  23478-2 0  9990
2 29767  98.2092  58.2902 0329160  97.1017  53.0584 14.04542902971941
FENGYUN 1C DEB          
1 29769U 99025BK  26095.60150771  .00003611  00000+0  18380-2 0  9999
2 29769  99.0915 159.9156 0094827 168.5067 191.8301 14.14145924982903
FENGYUN 1C DEB          
1 29770U 99025BL  26095.18323968  .00003135  00000+0  14432-2 0  9999
2 29770  98.8342 175.7515 0060246 306.8724  81.4998 14.20888926986976
FENGYUN 1C DEB          
1 29772U 99025BN  26095.51091399  .00001934  00000+0  11570-2 0  9993
2 29772  98.3836 300.9423 0136344 328.4021  60.1823 14.03653108978519
FENGYUN 1C DEB          
1 29773U 99025BP  26095.39030347  .00001095  00000+0  45648-3 0  9998
2 29773  99.0025 257.3084 0046165 322.7893  66.8238 14.27847203998197
FENGYUN 1C DEB          
1 29774U 99025BQ  26095.45468988  .00000474  00000+0  22915-3 0  9994
2 29774  99.0910  44.2871 0050517 157.3938 318.9458 14.22854651996920
FENGYUN 1C DEB          
1 29776U 99025BS  26095.62068952  .00000220  00000+0  15492-3 0  9993
2 29776  98.7582 124.0473 0022748 311.6134 163.2128 14.07846221986826
FENGYUN 1C DEB          
1 29777U 99025BT  26095.14987285  .00000135  00000+0  13619-3 0  9994
2 29777  99.2613 157.0486 0092003 263.4079 122.2515 13.92150005976196
FENGYUN 1C DEB          
1 29779U 99025BV  26095.49259203  .00000477  00000+0  27055-3 0  9994
2 29779  98.6747 108.3315 0062785 199.4239 160.4540 14.13567496990197
FENGYUN 1C DEB          
1 29780U 99025BW  26095.24681660  .00003764  00000+0  17112-2 0  9999
2 29780  99.2809  26.9333 0040392 166.9846 193.2382 14.21971676986914
FENGYUN 1C DEB          
1 29781U 99025BX  26095.45362212  .00001180  00000+0  73593-3 0  9998
2 29781  98.8187  91.4537 0070976 213.9974 300.3617 14.05506667982406
FENGYUN 1C DEB          
1 29782U 99025BY  26095.39454955  .00002954  00000+0  16105-2 0  9993
2 29782  99.0871 155.5815 0053350 241.6366 181.4024 14.12210702982759
FENGYUN 1C DEB          
1 29784U 99025CA  26095.57344403  .00001888  00000+0  72252-3 0  9992
2 29784  98.9494  22.6591 0059440 326.4766 212.0097 14.30922512999878
